ONEWEB-0721             
1 56725U 23068R   26162.76809178 -.00000017  00000+0 -76591-4 0  9998
2 56725  86.6768  87.2458 0001917  78.1316 282.0032 13.22468581157220
ONEWEB-0015             
1 61594U 24188A   26162.58720477  .00000335  00000+0  91050-3 0  9993
2 61594  87.8892  22.2081 0002285  75.8714 284.2667 13.11419500 83723
ONEWEB-0687             
1 61595U 24188B   26162.61150169  .00000007  00000+0 -14198-4 0  9999
2 61595  87.9130   6.9864 0002352  89.3318 270.8083 13.17647384 85165
ONEWEB-0688             
1 61596U 24188C   26162.94393657  .00000030  00000+0  43975-4 0  9997
2 61596  87.9130   6.9197 0002849  69.3058 290.8378 13.17648077 85209
ONEWEB-0689             
1 61597U 24188D   26162.62110814 -.00000107  00000+0 -33777-3 0  9990
2 61597  87.8903  22.1584 0002009  92.3932 267.7426 13.11416273 83729
ONEWEB-0690             
1 61598U 24188E   26162.63127805 -.00000569  00000+0 -16411-2 0  9997
2 61598  87.8900  22.1680 0001369  67.1075 293.0198 13.11415073 83905
ONEWEB-0691             
1 61599U 24188F   26162.62620277 -.00000375  00000+0 -10941-2 0  9995
2 61599  87.8907  22.0775 0002176  80.5441 279.5933 13.11415006 83755
ONEWEB-0692             
1 61600U 24188G   26162.64653549 -.00000499  00000+0 -14428-2 0  9999
2 61600  87.8890  22.1878 0001684 110.8934 249.2374 13.11418828 83748
ONEWEB-0693             
1 61601U 24188H   26162.57606219  .00000041  00000+0  71736-4 0  9992
2 61601  87.9128   7.0132 0001497  62.2007 297.9276 13.17647983 85141
ONEWEB-0695             
1 61602U 24188J   26162.62280764 -.00000174  00000+0 -52702-3 0  9992
2 61602  87.8889  22.1844 0001942 100.9002 259.2344 13.11414321 83735
ONEWEB-0697             
1 61603U 24188K   26162.65501918 -.00000018  00000+0 -87647-4 0  9997
2 61603  87.8892  22.1684 0001556 109.7398 250.3898 13.11420186 83729
ONEWEB-0698             
1 61604U 24188L   26162.63297015 -.00000511  00000+0 -14780-2 0  9990
2 61604  87.8889  22.1869 0000698 104.8064 255.3141 13.11414960 83744
ONEWEB-0699             
1 61605U 24188M   26162.64142679  .00000716  00000+0  20160-2 0  9991
2 61605  87.8835  37.3706 0001452 102.1867 257.9423 13.10372914 82588
ONEWEB-0700             
1 61606U 24188N   26162.64308500  .00000735  00000+0  20698-2 0  9996
2 61606  87.8857  37.2784 0001822 104.1843 255.9487 13.10372801 82577
ONEWEB-0701             
1 61607U 24188P   26162.65967265  .00000050  00000+0  10717-3 0  9999
2 61607  87.8837  37.3662 0001418 109.2223 250.9058 13.10369524 82589
ONEWEB-0702             
1 61608U 24188Q   26162.67877134  .00000586  00000+0  16167-2 0  9995
2 61608  87.8908  22.0825 0001807 117.3899 242.7413 13.11417927 83769
ONEWEB-0704             
1 61609U 24188R   26162.64806579  .00000562  00000+0  15729-2 0  9995
2 61609  87.8849  37.3575 0002016 114.9517 245.1820 13.10371382 82567
ONEWEB-0705             
1 61610U 24188S   26162.65304909 -.00000234  00000+0 -70666-3 0  9998
2 61610  87.8844  37.3621 0002547 100.5594 259.5821 13.10367234 74732
ONEWEB-0706             
1 61611U 24188T   26162.71446341  .00000665  00000+0  18693-2 0  9990
2 61611  87.8841  37.3555 0001948 100.4097 259.7250 13.10374466 82661
ONEWEB-0707             
1 61612U 24188U   26162.64474553  .00000652  00000+0  18313-2 0  9994
2 61612  87.8846  37.3629 0001869 100.6159 259.5179 13.10371988 82598
ONEWEB-0708             
1 61613U 24188V   26162.66299080 -.00000115  00000+0 -36685-3 0  9996
2 61613  87.8833  37.3781 0002328  85.8092 274.3301 13.10369019 82577
